COSMOS 2433 [GLONASS-M] 
1 32275U 07052A   26140.69869691 -.00000037  00000+0  00000+0 0  9999
2 32275  65.5932 316.8588 0001468 187.1975 172.7970  2.13103946144479
COSMOS 2434 [GLONASS-M] 
1 32393U 07065A   26138.12313759  .00000069  00000+0  00000+0 0  9992
2 32393  64.3157 192.9296 0001038  15.7425  58.3480  2.13101438143135
COSMOS 2436 [GLONASS-M] 
1 32395U 07065C   26140.29008944  .00000039  00000+0  00000+0 0  9999
2 32395  64.3244 192.9285 0017134 356.3295  72.6023  2.13100168143136
COSMOS 2456 [GLONASS-M] 
1 36111U 09070A   26140.41471647 -.00000010  00000+0  00000+0 0  9995
2 36111  64.9959  71.9189 0005618 322.7213 227.3740  2.13103629127834
COSMOS 2457 [GLONASS-M] 
1 36112U 09070B   26140.72355634 -.00000010  00000+0  00000+0 0  9997
2 36112  64.9819  71.7531 0001600 138.4332  56.2548  2.13101071127845
COSMOS 2460 [GLONASS-M] 
1 36402U 10007C   26136.70942285 -.00000031  00000+0  00000+0 0  9991
2 36402  65.4389 315.5319 0002205  80.0171 277.1198  2.13106192126059
COSMOS 2476 [GLONASS-M] 
1 37867U 11064A   26140.45478531 -.00000006  00000+0  00000+0 0  9998
2 37867  65.2554  73.8072 0023373 240.9848 248.1848  2.13103715113171
COSMOS 2477 [GLONASS-M] 
1 37868U 11064B   26140.75732980 -.00000006  00000+0  00000+0 0  9993
2 37868  65.2619  73.8763 0020519 242.7077 298.9850  2.13102834113171
COSMOS 2475 [GLONASS-M] 
1 37869U 11064C   26139.38537985 -.00000008  00000+0  00000+0 0  9991
2 37869  65.2682  73.9440 0026554 254.8790 269.5426  2.13101757113150
COSMOS 2485 [GLONASS-M] 
1 39155U 13019A   26139.28515061 -.00000007  00000+0  00000+0 0  9992
2 39155  65.4047  74.5741 0023806 236.3493 123.4112  2.13103244101666
COSMOS 2492 [GLONASS-M] 
1 39620U 14012A   26140.18259422 -.00000036  00000+0  00000+0 0  9992
2 39620  65.3143 314.8875 0010943 329.1830  30.7466  2.13103163 94642
COSMOS 2500 [GLONASS-M] 
1 40001U 14032A   26140.35270682 -.00000036  00000+0  00000+0 0  9999
2 40001  65.2520 314.6310 0006653 181.8281 178.1634  2.13105938 92861
COSMOS 2514 [GLONASS-M] 
1 41330U 16008A   26140.59883179 -.00000036  00000+0  00000+0 0  9997
2 41330  65.0387 313.9530 0010262 196.8489 163.1104  2.13102548 80035
COSMOS 2522 [GLONASS-M] 
1 42939U 17055A   26139.02891852  .00000056  00000+0  00000+0 0  9990
2 42939  64.0783 192.8783 0009756 218.2478 141.7671  2.13104887 67356
COSMOS 2527 [GLONASS-M] 
1 43508U 18053A   26140.39819576 -.00000004  00000+0  00000+0 0  9991
2 43508  65.5635  74.8340 0007838 245.6715 114.2378  2.13101956 61689
COSMOS 2529 [GLONASS-M] 
1 43687U 18086A   26138.14863914  .00000068  00000+0  00000+0 0  9999
2 43687  64.2929 193.6085 0011215 256.0071 103.9560  2.13102075 58643
COSMOS 2534 [GLONASS-M] 
1 44299U 19030A   26140.54951485  .00000035  00000+0  00000+0 0  9991
2 44299  64.3665 193.5471 0012784 275.7336 260.6479  2.13102278 54330
COSMOS 2545 [GLONASS-M] 
1 45358U 20018A   26140.06882193 -.00000037  00000+0  00000+0 0  9995
2 45358  64.3724 313.4075 0007460 233.5963 126.3271  2.13102392 48067
COSMOS 2547 [GLONASS-K] 
1 46805U 20075A   26140.25813566  .00000039  00000+0  00000+0 0  9996
2 46805  64.5974 193.4075 0008922 237.8054 122.1862  2.13100193 43312
COSMOS 2557 [GLONASS-K] 
1 52984U 22075A   26139.95334907 -.00000039  00000+0  00000+0 0  9996
2 52984  64.3157 315.4807 0010109 278.6015  81.2783  2.13101935 30113
COSMOS 2559 [GLONASS-K] 
1 54031U 22130A   26139.30364975 -.00000039  00000+0  00000+0 0  9990
2 54031  64.2945 315.5867 0012125 176.3720 183.6319  2.13101396 28071
COSMOS 2564 [GLONASS-M] 
1 54377U 22161A   26140.08555985  .00000041  00000+0  00000+0 0  9999
2 54377  64.7394 193.6445 0011711 222.7924 137.1954  2.13101979 27037
COSMOS 2569 [GLONASS-K2]
1 57517U 23114A   26140.09792700 -.00000007  00000+0  00000+0 0  9999
2 57517  65.2872  73.5672 0011707 296.4843  63.3874  2.13103654 21660
COSMOS 2584 [GLONASS-K2]
1 63130U 25042A   26140.45406620 -.00000007  00000+0  00000+0 0  9992
2 63130  65.0695  73.7444 0006140 233.1175 126.8187  2.13103740  9450
COSMOS 2596 [GLONASS-K1]
1 65590U 25206B   26140.53574256 -.00000038  00000+0  00000+0 0  9990
2 65590  64.6521 315.9473 0011199 315.4946 223.7566  2.13100430  5321
