OBJECT_NAME,OBJECT_ID,EPOCH,MEAN_MOTION,ECCENTRICITY,INCLINATION,RA_OF_ASC_NODE,ARG_OF_PERICENTER,MEAN_ANOMALY,EPHEMERIS_TYPE,CLASSIFICATION_TYPE,NORAD_CAT_ID,ELEMENT_SET_NO,REV_AT_EPOCH,BSTAR,MEAN_MOTION_DOT,MEAN_MOTION_DDOT
COSMOS 2433 (720),2007-052A,2026-05-20T16:46:07.413024,2.13103946,.00014682,65.5932,316.8588,187.1975,172.7970,0,U,32275,999,14447,0,-.37E-6,0
COSMOS 2434 (721),2007-065A,2026-05-18T02:57:19.087776,2.13101438,.00010386,64.3157,192.9296,15.7425,58.3480,0,U,32393,999,14313,0,.69E-6,0
COSMOS 2436 (723),2007-065C,2026-05-20T06:57:43.727616,2.13100168,.00171346,64.3244,192.9285,356.3295,72.6023,0,U,32395,999,14313,0,.39E-6,0
COSMOS 2456 (730),2009-070A,2026-05-20T09:57:11.503008,2.13103629,.00056182,64.9959,71.9189,322.7213,227.3740,0,U,36111,999,12783,0,-.1E-6,0
COSMOS 2457 (733),2009-070B,2026-05-20T17:21:55.267776,2.13101071,.00016001,64.9819,71.7531,138.4332,56.2548,0,U,36112,999,12784,0,-.1E-6,0
COSMOS 2460 (732),2010-007C,2026-05-16T17:01:34.134240,2.13106192,.00022057,65.4389,315.5319,80.0171,277.1198,0,U,36402,999,12605,0,-.31E-6,0
COSMOS 2476 (744),2011-064A,2026-05-20T10:54:53.450784,2.13103715,.00233732,65.2554,73.8072,240.9848,248.1848,0,U,37867,999,11317,0,-.6E-7,0
COSMOS 2477 (745),2011-064B,2026-05-20T18:10:33.294720,2.13102834,.00205193,65.2619,73.8763,242.7077,298.9850,0,U,37868,999,11317,0,-.6E-7,0
COSMOS 2475 (743),2011-064C,2026-05-19T09:14:56.819040,2.13101757,.00265547,65.2682,73.9440,254.8790,269.5426,0,U,37869,999,11315,0,-.8E-7,0
COSMOS 2485 (747),2013-019A,2026-05-19T06:50:37.012704,2.13103244,.00238062,65.4047,74.5741,236.3493,123.4112,0,U,39155,999,10166,0,-.7E-7,0
COSMOS 2492 (754),2014-012A,2026-05-20T04:22:56.140608,2.13103163,.00109435,65.3143,314.8875,329.1830,30.7466,0,U,39620,999,9464,0,-.36E-6,0
COSMOS 2500 (755),2014-032A,2026-05-20T08:27:53.869248,2.13105938,.00066536,65.2520,314.6310,181.8281,178.1634,0,U,40001,999,9286,0,-.36E-6,0
COSMOS 2514 (751),2016-008A,2026-05-20T14:22:19.066656,2.13102548,.00102629,65.0387,313.9530,196.8489,163.1104,0,U,41330,999,8003,0,-.36E-6,0
COSMOS 2522 (752),2017-055A,2026-05-19T00:41:38.560128,2.13104887,.00097567,64.0783,192.8783,218.2478,141.7671,0,U,42939,999,6735,0,.56E-6,0
COSMOS 2527 (756),2018-053A,2026-05-20T09:33:24.113664,2.13101956,.00078386,65.5635,74.8340,245.6715,114.2378,0,U,43508,999,6168,0,-.4E-7,0
COSMOS 2529 (757),2018-086A,2026-05-18T03:34:02.421696,2.13102075,.00112155,64.2929,193.6085,256.0071,103.9560,0,U,43687,999,5864,0,.68E-6,0
COSMOS 2534 (758),2019-030A,2026-05-20T13:11:18.083040,2.13102278,.00127845,64.3665,193.5471,275.7336,260.6479,0,U,44299,999,5433,0,.35E-6,0
COSMOS 2545 (760),2020-018A,2026-05-20T01:39:06.214752,2.13102392,.00074605,64.3724,313.4075,233.5963,126.3271,0,U,45358,999,4806,0,-.37E-6,0
COSMOS 2547 (705K),2020-075A,2026-05-20T06:11:42.921024,2.13100193,.00089223,64.5974,193.4075,237.8054,122.1862,0,U,46805,999,4331,0,.39E-6,0
COSMOS 2557 (706K),2022-075A,2026-05-19T22:52:49.359648,2.13101935,.00101096,64.3157,315.4807,278.6015,81.2783,0,U,52984,999,3011,0,-.39E-6,0
COSMOS 2559 (707K),2022-130A,2026-05-19T07:17:15.338400,2.13101396,.0012125,64.2945,315.5867,176.3720,183.6319,0,U,54031,999,2807,0,-.39E-6,0
COSMOS 2564 (761),2022-161A,2026-05-20T02:03:12.371040,2.13101979,.00117116,64.7394,193.6445,222.7924,137.1954,0,U,54377,999,2703,0,.41E-6,0
COSMOS 2569 (703K),2023-114A,2026-05-20T02:21:00.892800,2.13103654,.00117077,65.2872,73.5672,296.4843,63.3874,0,U,57517,999,2166,0,-.7E-7,0
COSMOS 2584 (704K),2025-042A,2026-05-20T10:53:51.319680,2.13103740,.00061408,65.0695,73.7444,233.1175,126.8187,0,U,63130,999,945,0,-.7E-7,0
COSMOS 2596 (708K),2025-206B,2026-05-20T12:51:28.157184,2.13100430,.0011199,64.6521,315.9473,315.4946,223.7566,0,U,65590,999,532,0,-.38E-6,0
